[{"OBJECT_NAME":"STARLINK-5017","OBJECT_ID":"2022-119AF","EPOCH":"2026-03-09T21:21:32.009184","MEAN_MOTION":15.08842616,"ECCENTRICITY":0.00013106,"INCLINATION":53.2176,"RA_OF_ASC_NODE":313.3219,"ARG_OF_PERICENTER":91.7282,"MEAN_ANOMALY":268.386,"EPHEMERIS_TYPE":0,"CLASSIFICATION_TYPE":"U","NORAD_CAT_ID":53915,"ELEMENT_SET_NO":999,"REV_AT_EPOCH":19185,"BSTAR":3.1404676e-5,"MEAN_MOTION_DOT":2.12e-6,"MEAN_MOTION_DDOT":0},{"OBJECT_NAME":"AISAT","OBJECT_ID":"2014-034B","EPOCH":"2026-03-09T16:29:04.722144","MEAN_MOTION":15.06703825,"ECCENTRICITY":0.00089151,"INCLINATION":98.2441,"RA_OF_ASC_NODE":333.9816,"ARG_OF_PERICENTER":189.0234,"MEAN_ANOMALY":171.0832,"EPHEMERIS_TYPE":0,"CLASSIFICATION_TYPE":"U","NORAD_CAT_ID":40054,"ELEMENT_SET_NO":999,"REV_AT_EPOCH":63221,"BSTAR":0.00094770343,"MEAN_MOTION_DOT":0.00014038,"MEAN_MOTION_DDOT":0}]
